ENTRYSAT                
1 44429U 98067QP  19302.84724541  .00012148  00000-0  19491-3 0  9996
2 44429  51.6426  51.8795 0002987 181.1890 178.9093 15.53483971 18460
VCC C                   
1 44430U 98067QQ  19302.58929328  .00014351  00000-0  22789-3 0  9991
2 44430  51.6430  53.1573 0003082 193.1189 166.9721 15.53602416 17244
VCC B                   
1 44431U 98067QR  19302.34244314  .00011858  00000-0  19225-3 0  9991
2 44431  51.6423  54.5083 0003191 187.5883 172.5059 15.53220251 18327
